Model Marker Errors from IK
version=1
nRows=282
nColumns=4
inDegrees=no
endheader
time	total_squared_error	marker_error_RMS	marker_error_max
      0.00000000	      0.05546498	      0.05887751	      0.08244194
      0.03333333	      0.05707031	      0.05972348	      0.08386746
      0.06666667	      0.05825092	      0.06033807	      0.08742413
      0.10000000	      0.05812149	      0.06027099	      0.08157088
      0.13333333	      0.05015910	      0.05599057	      0.08025714
      0.16666667	      0.04224235	      0.05138236	      0.07577980
      0.20000000	      0.03599508	      0.04743092	      0.07758412
      0.23333333	      0.03426431	      0.04627655	      0.07541104
      0.26666667	      0.03516221	      0.04687897	      0.07352112
      0.30000000	      0.03544710	      0.04706850	      0.07257869
      0.33333333	      0.03259552	      0.04513557	      0.07269857
      0.36666667	      0.02991646	      0.04324094	      0.07297140
      0.40000000	      0.03045021	      0.04362497	      0.07603149
      0.43333333	      0.03299642	      0.04541229	      0.08055656
      0.46666667	      0.03414293	      0.04619451	      0.08266114
      0.50000000	      0.03356884	      0.04580451	      0.08289393
      0.53333333	      0.03218087	      0.04484757	      0.08412585
      0.56666667	      0.03582038	      0.04731568	      0.08998966
      0.60000000	      0.04301416	      0.05184964	      0.09491246
      0.63333333	      0.05144276	      0.05670249	      0.10062457
      0.66666667	      0.05911333	      0.06078308	      0.10364775
      0.70000000	      0.07304715	      0.06756809	      0.11597256
      0.73333333	      0.11016581	      0.08297809	      0.15534894
      0.76666667	      0.15787628	      0.09933412	      0.19307834
      0.80000000	      0.22378693	      0.11826531	      0.25340925
      0.83333333	      0.29870937	      0.13663578	      0.32535163
      0.86666667	      0.31561348	      0.14044872	      0.35612472
      0.90000000	      0.26609144	      0.12896013	      0.32855610
      0.93333333	      0.22158027	      0.11768078	      0.29354993
      0.96666667	      0.25643934	      0.12659960	      0.31045597
      1.00000000	      0.13626971	      0.09228682	      0.14683406
      1.03333333	      0.09207744	      0.07586066	      0.12175369
      1.06666667	      0.05762622	      0.06001366	      0.10473749
      1.10000000	      0.05877920	      0.06061105	      0.10278316
      1.13333333	      0.06157414	      0.06203534	      0.10111674
      1.16666667	      0.06130315	      0.06189868	      0.09857135
      1.20000000	      0.05797461	      0.06019479	      0.09560763
      1.23333333	      0.05707846	      0.05972775	      0.09335465
      1.26666667	      0.06355041	      0.06302302	      0.10900905
      1.30000000	      0.07503991	      0.06848353	      0.12344338
      1.33333333	      0.07896871	      0.07025343	      0.12130966
      1.36666667	      0.07214026	      0.06714735	      0.10489331
      1.40000000	      0.06380689	      0.06315006	      0.10476005
      1.43333333	      0.06096888	      0.06172969	      0.10439917
      1.46666667	      0.06563467	      0.06404816	      0.10652024
      1.50000000	      0.06961156	      0.06596001	      0.11203443
      1.53333333	      0.06957221	      0.06594136	      0.11860862
      1.56666667	      0.06621242	      0.06432944	      0.11835681
      1.60000000	      0.06131688	      0.06190561	      0.11293121
      1.63333333	      0.05794427	      0.06017904	      0.10834859
      1.66666667	      0.05639453	      0.05936883	      0.10884491
      1.70000000	      0.05729009	      0.05983837	      0.11429590
      1.73333333	      0.05794191	      0.06017781	      0.11799621
      1.76666667	      0.05761239	      0.06000645	      0.11491974
      1.80000000	      0.05742405	      0.05990829	      0.11112022
      1.83333333	      0.05772924	      0.06006728	      0.11157140
      1.86666667	      0.05823114	      0.06032783	      0.11610973
      1.90000000	      0.05825599	      0.06034069	      0.12113571
      1.93333333	      0.05866129	      0.06055023	      0.12451082
      1.96666667	      0.06072290	      0.06160504	      0.12814324
      2.00000000	      0.06309848	      0.06279853	      0.13039404
      2.03333333	      0.06485294	      0.06366560	      0.13486913
      2.06666667	      0.06565146	      0.06405635	      0.13796517
      2.10000000	      0.06701448	      0.06471789	      0.13819838
      2.13333333	      0.06708571	      0.06475227	      0.13525796
      2.16666667	      0.06445506	      0.06347000	      0.12928927
      2.20000000	      0.06012641	      0.06130172	      0.12330827
      2.23333333	      0.05635626	      0.05934868	      0.11528033
      2.26666667	      0.05280391	      0.05744776	      0.10606812
      2.30000000	      0.05037401	      0.05611039	      0.10714395
      2.33333333	      0.04851236	      0.05506380	      0.10559255
      2.36666667	      0.05017127	      0.05599736	      0.10258380
      2.40000000	      0.05735512	      0.05987232	      0.09894848
      2.43333333	      0.06647922	      0.06445891	      0.10920157
      2.46666667	      0.07239935	      0.06726782	      0.12666863
      2.50000000	      0.07013254	      0.06620637	      0.13315896
      2.53333333	      0.06002807	      0.06125157	      0.12296985
      2.56666667	      0.04703730	      0.05422021	      0.10470015
      2.60000000	      0.03839154	      0.04898440	      0.09201913
      2.63333333	      0.03621956	      0.04757859	      0.08950048
      2.66666667	      0.03763693	      0.04850060	      0.09186291
      2.70000000	      0.03885494	      0.04927914	      0.09196984
      2.73333333	      0.03921578	      0.04950744	      0.08769837
      2.76666667	      0.04149780	      0.05092752	      0.08456482
      2.80000000	      0.04670460	      0.05402812	      0.08608402
      2.83333333	      0.05096149	      0.05643663	      0.10204655
      2.86666667	      0.05080696	      0.05635100	      0.10336123
      2.90000000	      0.05142704	      0.05669383	      0.09643028
      2.93333333	      0.05625254	      0.05929404	      0.09103178
      2.96666667	      0.06286521	      0.06268234	      0.10896634
      3.00000000	      0.06422571	      0.06335698	      0.12490040
      3.03333333	      0.06118950	      0.06184128	      0.12935201
      3.06666667	      0.05751075	      0.05995350	      0.11402196
      3.10000000	      0.06292847	      0.06271387	      0.12000761
      3.13333333	      0.08606665	      0.07334280	      0.12874303
      3.16666667	      0.10861560	      0.08239220	      0.14667735
      3.20000000	      0.10220489	      0.07992375	      0.12898558
      3.23333333	      0.08938925	      0.07474509	      0.12756521
      3.26666667	      0.11915479	      0.08629701	      0.16939007
      3.30000000	      0.17070225	      0.10329032	      0.18506603
      3.33333333	      0.09055087	      0.07522918	      0.14262560
      3.36666667	      0.09518468	      0.07713004	      0.12466825
      3.40000000	      0.10442618	      0.08078760	      0.13112729
      3.43333333	      0.10747432	      0.08195819	      0.14516447
      3.46666667	      0.10167614	      0.07971674	      0.15028381
      3.50000000	      0.08718013	      0.07381570	      0.13097998
      3.53333333	      0.08153101	      0.07138409	      0.12243686
      3.56666667	      0.08386701	      0.07239951	      0.12147498
      3.60000000	      0.09035818	      0.07514909	      0.13357453
      3.63333333	      0.09408352	      0.07668259	      0.14826582
      3.66666667	      0.09475005	      0.07695374	      0.15353652
      3.70000000	      0.09636967	      0.07760866	      0.15280664
      3.73333333	      0.10185001	      0.07978487	      0.14400344
      3.76666667	      0.10073874	      0.07934842	      0.14968951
      3.80000000	      0.08110592	      0.07119775	      0.13777887
      3.83333333	      0.06829354	      0.06533258	      0.12523083
      3.86666667	      0.05613433	      0.05923171	      0.10533500
      3.90000000	      0.06744539	      0.06492563	      0.11992729
      3.93333333	      0.07454232	      0.06825610	      0.13705885
      3.96666667	      0.07650239	      0.06914766	      0.14347635
      4.00000000	      0.09541956	      0.07722514	      0.15318047
      4.03333333	      0.11194951	      0.08364714	      0.17673682
      4.06666667	      0.09667745	      0.07773249	      0.14787383
      4.10000000	      0.07620625	      0.06901370	      0.13094761
      4.13333333	      0.06767861	      0.06503778	      0.13545096
      4.16666667	      0.06718062	      0.06479806	      0.14061104
      4.20000000	      0.06734524	      0.06487740	      0.14562683
      4.23333333	      0.06765378	      0.06502585	      0.15047941
      4.26666667	      0.06958361	      0.06594676	      0.15498135
      4.30000000	      0.07249813	      0.06731369	      0.15739160
      4.33333333	      0.07506692	      0.06849586	      0.15732350
      4.36666667	      0.07401230	      0.06801301	      0.15251044
      4.40000000	      0.07088232	      0.06655933	      0.14612818
      4.43333333	      0.06866025	      0.06550775	      0.14140430
      4.46666667	      0.06932197	      0.06582266	      0.14000965
      4.50000000	      0.07241055	      0.06727302	      0.14303677
      4.53333333	      0.07332808	      0.06769789	      0.14479854
      4.56666667	      0.07188960	      0.06703059	      0.14057892
      4.60000000	      0.06825889	      0.06531600	      0.13366123
      4.63333333	      0.06423718	      0.06336264	      0.12780937
      4.66666667	      0.06139610	      0.06194559	      0.12377313
      4.70000000	      0.06081059	      0.06164951	      0.12176463
      4.73333333	      0.05943884	      0.06095021	      0.11590839
      4.76666667	      0.05667717	      0.05951742	      0.10561791
      4.80000000	      0.05313014	      0.05762494	      0.10445664
      4.83333333	      0.04966252	      0.05571272	      0.10159608
      4.86666667	      0.04794873	      0.05474299	      0.09753496
      4.90000000	      0.05150576	      0.05673720	      0.09393434
      4.93333333	      0.05605956	      0.05919225	      0.10969340
      4.96666667	      0.05483927	      0.05854446	      0.11817018
      5.00000000	      0.04757794	      0.05453092	      0.11053162
      5.03333333	      0.04040548	      0.05025279	      0.09824568
      5.06666667	      0.03786382	      0.04864657	      0.09042957
      5.10000000	      0.03775576	      0.04857710	      0.09335000
      5.13333333	      0.03798530	      0.04872454	      0.09664681
      5.16666667	      0.03961220	      0.04975703	      0.09792132
      5.20000000	      0.04350040	      0.05214188	      0.09822037
      5.23333333	      0.04724942	      0.05434233	      0.09813734
      5.26666667	      0.05019286	      0.05600941	      0.09808432
      5.30000000	      0.05119479	      0.05656567	      0.09664464
      5.33333333	      0.04748640	      0.05447844	      0.09428715
      5.36666667	      0.04151193	      0.05093619	      0.09055643
      5.40000000	      0.03926527	      0.04953867	      0.08519325
      5.43333333	      0.04670672	      0.05402934	      0.08171589
      5.46666667	      0.06640397	      0.06442242	      0.10096726
      5.50000000	      0.08713835	      0.07379802	      0.13530202
      5.53333333	      0.09599009	      0.07745567	      0.13779934
      5.56666667	      0.09481610	      0.07698056	      0.12175218
      5.60000000	      0.09331356	      0.07636817	      0.11311017
      5.63333333	      0.09626387	      0.07756605	      0.12035228
      5.66666667	      0.10550856	      0.08120520	      0.12785890
      5.70000000	      0.09198605	      0.07582300	      0.13671512
      5.73333333	      0.08602784	      0.07332626	      0.14188982
      5.76666667	      0.08117494	      0.07122804	      0.13285343
      5.80000000	      0.08116129	      0.07122205	      0.12392681
      5.83333333	      0.08727259	      0.07385484	      0.12279926
      5.86666667	      0.09132659	      0.07555072	      0.12657746
      5.90000000	      0.09593671	      0.07743413	      0.13697509
      5.93333333	      0.09712047	      0.07791039	      0.14837846
      5.96666667	      0.09257763	      0.07606643	      0.15732411
      6.00000000	      0.08622749	      0.07341129	      0.15678586
      6.03333333	      0.07340195	      0.06773199	      0.13084747
      6.06666667	      0.06244536	      0.06247268	      0.11851303
      6.10000000	      0.05353130	      0.05784208	      0.10748037
      6.13333333	      0.04776708	      0.05463920	      0.10411931
      6.16666667	      0.04671738	      0.05403551	      0.10320289
      6.20000000	      0.05057887	      0.05622437	      0.10493569
      6.23333333	      0.05823007	      0.06032727	      0.11234347
      6.26666667	      0.07070854	      0.06647770	      0.12454108
      6.30000000	      0.09050776	      0.07521127	      0.13354098
      6.33333333	      0.08799178	      0.07415852	      0.13722314
      6.36666667	      0.07918158	      0.07034805	      0.13795330
      6.40000000	      0.08117255	      0.07122699	      0.14069904
      6.43333333	      0.08734789	      0.07388669	      0.14443654
      6.46666667	      0.08781576	      0.07408431	      0.14233687
      6.50000000	      0.08189409	      0.07154286	      0.13620944
      6.53333333	      0.07738860	      0.06954702	      0.13071652
      6.56666667	      0.07406029	      0.06803505	      0.13060378
      6.60000000	      0.06890364	      0.06562376	      0.13596625
      6.63333333	      0.06411363	      0.06330167	      0.14061791
      6.66666667	      0.06456006	      0.06352168	      0.14486379
      6.70000000	      0.06853251	      0.06544678	      0.14692124
      6.73333333	      0.07124118	      0.06672761	      0.14409827
      6.76666667	      0.07088440	      0.06656031	      0.13894923
      6.80000000	      0.06994766	      0.06611905	      0.13661879
      6.83333333	      0.07098441	      0.06660725	      0.13969112
      6.86666667	      0.07378237	      0.06790728	      0.14508992
      6.90000000	      0.07502777	      0.06847799	      0.14920783
      6.93333333	      0.07360573	      0.06782594	      0.14972252
      6.96666667	      0.07173075	      0.06695649	      0.14694586
      7.00000000	      0.07047803	      0.06636925	      0.14433070
      7.03333333	      0.06980563	      0.06605189	      0.14318284
      7.06666667	      0.06952856	      0.06592067	      0.14361633
      7.10000000	      0.06979353	      0.06604616	      0.14548380
      7.13333333	      0.06948895	      0.06590189	      0.14806444
      7.16666667	      0.06852803	      0.06544465	      0.14935135
      7.20000000	      0.06743309	      0.06491971	      0.15024769
      7.23333333	      0.06722772	      0.06482077	      0.14937492
      7.26666667	      0.06712439	      0.06477094	      0.13825921
      7.30000000	      0.06800508	      0.06519446	      0.13024699
      7.33333333	      0.06998579	      0.06613707	      0.12739473
      7.36666667	      0.07731364	      0.06951333	      0.12515059
      7.40000000	      0.08949360	      0.07478870	      0.14030639
      7.43333333	      0.09735410	      0.07800404	      0.16497615
      7.46666667	      0.09362348	      0.07649489	      0.16767144
      7.50000000	      0.08335012	      0.07217605	      0.15525277
      7.53333333	      0.08029855	      0.07084250	      0.14931763
      7.56666667	      0.08544696	      0.07307828	      0.15160384
      7.60000000	      0.09323892	      0.07633762	      0.15600845
      7.63333333	      0.09349591	      0.07644275	      0.15373940
      7.66666667	      0.08167651	      0.07144776	      0.14397341
      7.70000000	      0.06491555	      0.06369633	      0.13171963
      7.73333333	      0.05179511	      0.05689635	      0.12158192
      7.76666667	      0.04511122	      0.05309850	      0.11312744
      7.80000000	      0.04114441	      0.05071021	      0.10400769
      7.83333333	      0.03665839	      0.04786595	      0.09567986
      7.86666667	      0.03343808	      0.04571520	      0.08923484
      7.90000000	      0.03231288	      0.04493946	      0.08683441
      7.93333333	      0.03299984	      0.04541464	      0.08840115
      7.96666667	      0.03445492	      0.04640509	      0.09272103
      8.00000000	      0.03569009	      0.04722955	      0.09767952
      8.03333333	      0.03528112	      0.04695817	      0.09879059
      8.06666667	      0.03471968	      0.04658304	      0.09887832
      8.10000000	      0.03519080	      0.04689803	      0.09857274
      8.13333333	      0.03586265	      0.04734359	      0.09851133
      8.16666667	      0.03601185	      0.04744197	      0.09787025
      8.20000000	      0.03485740	      0.04667534	      0.09869898
      8.23333333	      0.03507708	      0.04682219	      0.09874554
      8.26666667	      0.03901050	      0.04937769	      0.10296180
      8.30000000	      0.04633908	      0.05381628	      0.11078905
      8.33333333	      0.05284006	      0.05746741	      0.11798176
      8.36666667	      0.05359527	      0.05787663	      0.11931133
      8.40000000	      0.04977323	      0.05577479	      0.11378367
      8.43333333	      0.04486675	      0.05295443	      0.10622058
      8.46666667	      0.04151560	      0.05093844	      0.09679446
      8.50000000	      0.04100174	      0.05062222	      0.08861885
      8.53333333	      0.04213376	      0.05131628	      0.08968048
      8.56666667	      0.04477735	      0.05290165	      0.09659830
      8.60000000	      0.04632201	      0.05380637	      0.10635547
      8.63333333	      0.05024637	      0.05603925	      0.11393893
      8.66666667	      0.05259988	      0.05733666	      0.11656805
      8.70000000	      0.05441795	      0.05831914	      0.11811380
      8.73333333	      0.05551652	      0.05890486	      0.12090057
      8.76666667	      0.05879014	      0.06061669	      0.12910075
      8.80000000	      0.06322637	      0.06286213	      0.13795522
      8.83333333	      0.06749535	      0.06494967	      0.14522305
      8.86666667	      0.06856120	      0.06546048	      0.14561617
      8.90000000	      0.06604783	      0.06424943	      0.14071104
      8.93333333	      0.06341395	      0.06295531	      0.13734954
      8.96666667	      0.06305583	      0.06277730	      0.13914429
      9.00000000	      0.06447695	      0.06348078	      0.14353065
      9.03333333	      0.06511800	      0.06379557	      0.14598082
      9.06666667	      0.06558595	      0.06402439	      0.14803339
      9.10000000	      0.06537699	      0.06392231	      0.14765391
      9.13333333	      0.06742143	      0.06491409	      0.14808789
      9.16666667	      0.07287725	      0.06748947	      0.15363817
      9.20000000	      0.07310251	      0.06759369	      0.14457993
      9.23333333	      0.07135356	      0.06678022	      0.13948798
      9.26666667	      0.07017432	      0.06622609	      0.13846211
      9.30000000	      0.07017393	      0.06622591	      0.13742986
      9.33333333	      0.07172204	      0.06695243	      0.13809905
      9.36666667	      0.07361341	      0.06782948	      0.14001083
